SIRION PATHFINDER-2     
1 43759U 18099B   26155.09975639  .00005832  00000+0  32069-3 0  9992
2 43759  97.4255 204.4687 0008286 356.1424   3.9743 15.14427297410645
CORVUS BC4              
1 43767U 18099K   26155.35326194  .00004976  00000+0  29008-3 0  9993
2 43767  97.4067 198.7097 0009456  53.6519 306.5583 15.12386308410468
M2 PATHFINDER           
1 45727U 20037E   26155.74395685  .00003529  00000+0  25553-3 0  9994
2 45727  97.8151 346.8349 0011371 189.4235 170.6779 15.04617610323624
NETSAT-4                
1 46504U 20068U   26155.80845128  .00019127  00000+0  42915-3 0  9993
2 46504  97.8608 163.0588 0005534  26.3615 333.7913 15.43433929313863
NETSAT-3                
1 46505U 20068V   26154.57235990  .00019667  00000+0  45992-3 0  9994
2 46505  97.8653 159.9578 0006067  46.7511 313.4240 15.42183437313582
NETSAT-1                
1 46506U 20068W   26155.22385502  .00015061  00000+0  45524-3 0  9998
2 46506  97.8744 155.1432 0006370  67.0325 293.1588 15.34317185313317
NETSAT-2                
1 46507U 20068X   26155.86511798  .00026234  00000+0  54869-3 0  9993
2 46507  97.8621 162.9708 0005066  59.3710 300.8037 15.45448329313836
GREENCUBE (IO-117)      
1 53109U 22080E   26152.46502029 -.00000003  00000+0  00000+0 0  9996
2 53109  70.1435 303.7143 0008869 293.3663  66.6064  6.42583280 91055
SITRO-AIS 5 (KATYS)     
1 57176U 23091L   26155.89984356  .00013729  00000+0  48633-3 0  9990
2 57176  97.5061 219.6848 0012549 141.5242 218.6895 15.29160745162462
SITRO-AIS 6 (CHIRKIN)   
1 57192U 23091AC  26155.91623060  .00011871  00000+0  46753-3 0  9990
2 57192  97.5069 218.8850 0012777 144.5279 215.6811 15.25690581162410
SITRO-AIS 8 (ANOKHIN)   
1 57193U 23091AD  26155.93814282  .00016684  00000+0  54442-3 0  9992
2 57193  97.5058 221.2630 0011744 137.6732 222.5418 15.31789962162579
SITRO-AIS 7 (FARTUSHNIY)
1 57194U 23091AE  26155.91689097  .00011714  00000+0  46567-3 0  9993
2 57194  97.5067 218.7168 0012610 145.4239 214.7822 15.25384627162405
SITRO-AIS 10 (BURDAEV)  
1 57199U 23091AK  26155.89059890  .00023257  00000+0  62018-3 0  9991
2 57199  97.5080 226.1434 0007991 116.3362 243.8705 15.38123994162870
SITRO-AIS 9 (SHCHUKIN)  
1 57201U 23091AM  26155.91315472  .00022797  00000+0  61728-3 0  9994
2 57201  97.5078 225.9060 0008223 116.2979 243.9111 15.37653049162864
SITRO-AIS 12 (SMIRENNIY)
1 57204U 23091AQ  26155.90608958  .00022729  00000+0  60981-3 0  9995
2 57204  97.5093 226.3584 0007872 111.5714 248.6370 15.37941304162889
SITRO-AIS 11 (SHEFFER)  
1 57208U 23091AU  26155.92285837  .00023921  00000+0  63303-3 0  9994
2 57208  97.5090 226.6144 0007794 111.3417 248.8661 15.38355062162905
SITRO-AIS 25            
1 59066U 24039R   26155.98116677  .00004227  00000+0  32951-3 0  9995
2 59066  95.3908 226.7051 0145154  11.5874 348.8633 14.93442339122902
SITRO-AIS 26            
1 59067U 24039S   26155.98087912  .00004073  00000+0  31904-3 0  9991
2 59067  95.3908 226.6052 0145493  12.1548 348.3126 14.93239192122895
SITRO-AIS 27            
1 59068U 24039T   26155.95454113  .00004407  00000+0  34200-3 0  9993
2 59068  95.3914 226.8530 0144516  10.9765 349.4556 14.93659693122912
SITRO-AIS 28            
1 59071U 24039U   26155.93226106  .00004367  00000+0  33875-3 0  9996
2 59071  95.3912 226.8843 0144336  10.8436 349.5844 14.93691463122917
GRBBETA                 
1 60237U 24128C   26155.74246985  .00004952  00000+0  34080-3 0  9996
2 60237  61.9904 259.9266 0042354 132.1755 228.2947 15.06546882104396
OOV-CUBE (TUBSAT-30)    
1 60240U 24128F   26155.87862744  .00003161  00000+0  24588-3 0  9994
2 60240  61.9956 268.4903 0046149 131.0003 229.5093 15.02716687104260
ROBUSTA-3A (MEDITERRAN*)
1 60243U 24128J   26155.76474441  .00009298  00000+0  54647-3 0  9994
2 60243  61.9867 252.1698 0043122 125.3968 235.1167 15.11508511104540
LASARSAT                
1 62391U 24247Q   26154.92379714  .00036882  00000+0  75515-3 0  9992
2 62391  44.9754 336.7002 0008047 258.6055 101.3931 15.45494859 81266
CROCUBE                 
1 62394U 24247T   26155.77662696  .00038955  00000+0  74814-3 0  9997
2 62394  44.9728 329.4431 0007950 266.3385  93.6596 15.47331526 81420
FORESAIL-1 PRIME        
1 66778U 25276DS  26155.93866206  .00006170  00000+0  30156-3 0  9996
2 66778  97.4203 229.4345 0003561 129.2467 230.9084 15.18587417 28548
KNACKSAT-2              
1 67683U 98067XZ  26153.80264404  .00045408  00000+0  58253-3 0  9991
2 67683  51.6300   6.7601 0010958 153.2067 206.9494 15.58609395 18031
